
# Worst residual: 124.58 km
# MJD 60588.000000 (2024 Oct  5  0:00)
A118n8v = A1188rT = A1188rU
1 79918U 24999ZZG 24279.49919926  .00000000  00000-0  00000-0 0 25044
2 79918 020.5058 332.3836 6617649 201.7080 022.1792 00.96114924    00

# Worst residual: 151.96 km
# MJD 60589.000000 (2024 Oct  6  0:00)
A118n8v = A1188rT = A1188rU
1 79918U 24999ZZG 24280.49919926  .00000000  00000-0  00000-0 0 25046
2 79918 020.4394 332.2724 6596981 202.5437 005.8697 00.96074128    00

# Worst residual: 162.25 km
# MJD 60590.000000 (2024 Oct  7  0:00)
A118n8v = A1188rT = A1188rU
1 79918U 24999ZZG 24281.49919926  .00000000  00000-0  00000-0 0 25047
2 79918 020.3521 332.1429 6576128 203.3836 349.5955 00.96002031    04

# Worst residual: 180.88 km
# MJD 60591.000000 (2024 Oct  8  0:00)
A118n8v = A1188rT = A1188rU
1 79918U 24999ZZG 24282.49919926  .00000000  00000-0  00000-0 0 25048
2 79918 020.3092 332.0244 6554049 204.2354 333.3084 00.95946223    07

# Worst residual: 169.65 km
# MJD 60592.000000 (2024 Oct  9  0:00)
A118n8v = A1188rT = A1188rU
1 79918U 24999ZZG 24283.49919926  .00000000  00000-0  00000-0 0 25049
2 79918 020.2489 331.9169 6531681 205.0455 317.0909 00.95858680    02

# Worst residual: 184.18 km
# MJD 60593.000000 (2024 Oct 10  0:00)
A118n8v = A1188rT = A1188rU
1 79918U 24999ZZG 24284.49919926  .00000000  00000-0  00000-0 0 25040
2 79918 020.1921 331.8124 6507493 205.8576 300.8827 00.95776072    01

# Worst residual: 178.39 km
# MJD 60594.000000 (2024 Oct 11  0:00)
A118n8v = A1188rT = A1188rU
1 79918U 24999ZZG 24285.49919926  .00000000  00000-0  00000-0 0 25041
2 79918 020.1387 331.7035 6483352 206.6677 284.7181 00.95696763    06

# Worst residual: 154.99 km
# MJD 60595.000000 (2024 Oct 12  0:00)
A118n8v = A1188rT = A1188rU
1 79918U 24999ZZG 24286.49919926  .00000000  00000-0  00000-0 0 25042
2 79918 020.0837 331.6010 6455890 207.4808 268.5492 00.95637675    00

# Worst residual: 101.64 km
# MJD 60596.000000 (2024 Oct 13  0:00)
A118n8v = A1188rT = A1188rU
1 79918U 24999ZZG 24287.49919926  .00000000  00000-0  00000-0 0 25043
2 79918 020.0324 331.5031 6428394 208.3048 252.3568 00.95581290    04

# Worst residual: 61.96 km
# MJD 60597.000000 (2024 Oct 14  0:00)
A118n8v = A1188rT = A1188rU
1 79918U 24999ZZG 24288.49919926  .00000000  00000-0  00000-0 0 25044
2 79918 019.9773 331.3936 6399652 209.1512 236.1788 00.95528934    00

# Worst residual: 53.75 km
# MJD 60598.000000 (2024 Oct 15  0:00)
A118n8v = A1188rT = A1188rU
1 79918U 24999ZZG 24289.49919926  .00000000  00000-0  00000-0 0 25045
2 79918 019.9308 331.2865 6370209 210.0341 219.9324 00.95490540    08

# Worst residual: 60.09 km
# MJD 60599.000000 (2024 Oct 16  0:00)
A118n8v = A1188rT = A1188rU
1 79918U 24999ZZG 24290.49919926  .00000000  00000-0  00000-0 0 25047
2 79918 019.8806 331.1706 6344045 210.9439 203.6796 00.95488148    03

# Worst residual: 70.56 km
# MJD 60600.000000 (2024 Oct 17  0:00)
A118n8v = A1188rT = A1188rU
1 79918U 24999ZZG 24291.49919926  .00000000  00000-0  00000-0 0 25048
2 79918 019.8341 331.0562 6319275 211.8542 187.4314 00.95519534    07

# Worst residual: 111.89 km
# MJD 60601.000000 (2024 Oct 18  0:00)
A118n8v = A1188rT = A1188rU
1 79918U 24999ZZG 24292.49919926  .00000000  00000-0  00000-0 0 25049
2 79918 019.7893 330.9434 6297963 212.7607 171.1809 00.95587077    01

# Worst residual: 142.89 km
# MJD 60602.000000 (2024 Oct 19  0:00)
A118n8v = A1188rT = A1188rU
1 79918U 24999ZZG 24293.49919926  .00000000  00000-0  00000-0 0 25040
2 79918 019.7543 330.8249 6278651 213.6363 154.9965 00.95678325    07

# Worst residual: 156.24 km
# MJD 60603.000000 (2024 Oct 20  0:00)
A118n8v = A1188rT = A1188rU
1 79918U 24999ZZG 24294.49919926  .00000000  00000-0  00000-0 0 25041
2 79918 019.7296 330.7802 6255415 214.3988 138.8637 00.95751765    07

# Worst residual: 169.33 km
# MJD 60604.000000 (2024 Oct 21  0:00)
A118n8v = A1188rT = A1188rU
1 79918U 24999ZZG 24295.49919926  .00000000  00000-0  00000-0 0 25042
2 79918 019.6848 330.6521 6228992 215.2609 122.6361 00.95804471    04

# Worst residual: 162.62 km
# MJD 60605.000000 (2024 Oct 22  0:00)
A118n8v = A1188rT = A1188rU
1 79918U 24999ZZG 24296.49919926  .00000000  00000-0  00000-0 0 25043
2 79918 019.6531 330.5581 6202881 216.0731 106.3845 00.95863823    04

# Worst residual: 147.54 km
# MJD 60606.000000 (2024 Oct 23  0:00)
A118n8v = A1188rT = A1188rU
1 79918U 24999ZZG 24297.49919926  .00000000  00000-0  00000-0 0 25044
2 79918 019.6227 330.4656 6174177 216.9028 090.0059 00.95912376    06

# Worst residual: 143.74 km
# MJD 60607.000000 (2024 Oct 24  0:00)
A118n8v = A1188rT = A1188rU
1 79918U 24999ZZG 24298.49919926  .00000000  00000-0  00000-0 0 25045
2 79918 019.5937 330.3742 6144757 217.7417 073.5049 00.95953626    08

# Worst residual: 119.65 km
# MJD 60608.000000 (2024 Oct 25  0:00)
A118n8v = A1188rT = A1188rU
1 79918U 24999ZZG 24299.49919926  .00000000  00000-0  00000-0 0 25046
2 79918 019.5724 330.2966 6114159 218.5910 056.8414 00.95957582    04
